{
  "type": "FeatureCollection",
  "features": [
    {
      "type": "Feature",
      "properties": {
        "norad_id": 63772,
        "name": "BIOMASS",
        "group": "resource",
        "lat": -17.424923786033414,
        "lon": 168.1310684321369,
        "alt_km": 673.9525229057308,
        "timestamp": "2025-12-06T11:28:10.687218+00:00",
        "meta_object_name": "BIOMASS",
        "meta_object_id": "2025-090A",
        "meta_epoch": "2025-12-05T22:27:30.909024",
        "meta_mean_motion": 14.67528512,
        "meta_eccentricity": 0.00012547,
        "meta_inclination": 98.0713,
        "meta_ra_of_asc_node": 165.0443,
        "meta_arg_of_pericenter": 75.1109,
        "meta_mean_anomaly": 285.0235,
        "meta_ephemeris_type": 0,
        "meta_classification_type": "U",
        "meta_norad_cat_id": 63772,
        "meta_element_set_no": 999,
        "meta_rev_at_epoch": 3234,
        "meta_bstar": -0.00048597845,
        "meta_mean_motion_dot": -2.802e-05,
        "meta_mean_motion_ddot": 0,
        "tle_line1": "1 63772U 25090A   25339.93577441 -.00002802  00000+0 -48598-3 0  9993",
        "tle_line2": "2 63772  98.0713 165.0443 0001254  75.1109 285.0235 14.67528512 32341"
      },
      "geometry": {
        "type": "Point",
        "coordinates": [
          168.1310684321369,
          -17.424923786033414
        ]
      }
    },
    {
      "type": "Feature",
      "properties": {
        "norad_id": 64694,
        "name": "GOSAT-GW (IBUKI GW)",
        "group": "resource",
        "lat": -11.58133277563561,
        "lon": 94.44391524944233,
        "alt_km": 673.5170942283185,
        "timestamp": "2025-12-06T11:28:10.687229+00:00",
        "meta_object_name": "GOSAT-GW (IBUKI GW)",
        "meta_object_id": "2025-141A",
        "meta_epoch": "2025-12-05T23:08:42.709344",
        "meta_mean_motion": 14.67572391,
        "meta_eccentricity": 0.00014336,
        "meta_inclination": 98.042,
        "meta_ra_of_asc_node": 275.6001,
        "meta_arg_of_pericenter": 84.7935,
        "meta_mean_anomaly": 275.3433,
        "meta_ephemeris_type": 0,
        "meta_classification_type": "U",
        "meta_norad_cat_id": 64694,
        "meta_element_set_no": 999,
        "meta_rev_at_epoch": 2350,
        "meta_bstar": 0.00038181618,
        "meta_mean_motion_dot": 2.12e-05,
        "meta_mean_motion_ddot": 0,
        "tle_line1": "1 64694U 25141A   25339.96438321  .00002120  00000+0  38182-3 0  9999",
        "tle_line2": "2 64694  98.0420 275.6001 0001433  84.7935 275.3433 14.67572391 23504"
      },
      "geometry": {
        "type": "Point",
        "coordinates": [
          94.44391524944233,
          -11.58133277563561
        ]
      }
    },
    {
      "type": "Feature",
      "properties": {
        "norad_id": 64876,
        "name": "IONOSFERA-M 3",
        "group": "resource",
        "lat": 27.530652686411344,
        "lon": 127.03361782079395,
        "alt_km": 819.0887741337292,
        "timestamp": "2025-12-06T11:28:10.687239+00:00",
        "meta_object_name": "IONOSFERA-M 3",
        "meta_object_id": "2025-155A",
        "meta_epoch": "2025-12-05T22:55:52.604544",
        "meta_mean_motion": 14.21438415,
        "meta_eccentricity": 0.00023623,
        "meta_inclination": 98.5774,
        "meta_ra_of_asc_node": 302.0139,
        "meta_arg_of_pericenter": 70.7312,
        "meta_mean_anomaly": 289.4122,
        "meta_ephemeris_type": 0,
        "meta_classification_type": "U",
        "meta_norad_cat_id": 64876,
        "meta_element_set_no": 999,
        "meta_rev_at_epoch": 1895,
        "meta_bstar": 9.4647993e-05,
        "meta_mean_motion_dot": 1.64e-06,
        "meta_mean_motion_ddot": 0,
        "tle_line1": "1 64876U 25155A   25339.95546996  .00000164  00000+0  94648-4 0  9999",
        "tle_line2": "2 64876  98.5774 302.0139 0002362  70.7312 289.4122 14.21438415 18958"
      },
      "geometry": {
        "type": "Point",
        "coordinates": [
          127.03361782079395,
          27.530652686411344
        ]
      }
    },
    {
      "type": "Feature",
      "properties": {
        "norad_id": 64877,
        "name": "IONOSFERA-M 4",
        "group": "resource",
        "lat": -27.159555448887506,
        "lon": -53.11793265876438,
        "alt_km": 826.3209105324513,
        "timestamp": "2025-12-06T11:28:10.687249+00:00",
        "meta_object_name": "IONOSFERA-M 4",
        "meta_object_id": "2025-155B",
        "meta_epoch": "2025-12-05T22:05:00.956544",
        "meta_mean_motion": 14.21439471,
        "meta_eccentricity": 0.00017191,
        "meta_inclination": 98.5773,
        "meta_ra_of_asc_node": 301.8993,
        "meta_arg_of_pericenter": 70.4095,
        "meta_mean_anomaly": 289.7268,
        "meta_ephemeris_type": 0,
        "meta_classification_type": "U",
        "meta_norad_cat_id": 64877,
        "meta_element_set_no": 999,
        "meta_rev_at_epoch": 1894,
        "meta_bstar": 0.00010277922,
        "meta_mean_motion_dot": 1.82e-06,
        "meta_mean_motion_ddot": 0,
        "tle_line1": "1 64877U 25155B   25339.92014996  .00000182  00000+0  10278-3 0  9993",
        "tle_line2": "2 64877  98.5773 301.8993 0001719  70.4095 289.7268 14.21439471 18949"
      },
      "geometry": {
        "type": "Point",
        "coordinates": [
          -53.11793265876438,
          -27.159555448887506
        ]
      }
    },
    {
      "type": "Feature",
      "properties": {
        "norad_id": 64899,
        "name": "MICROCARB",
        "group": "resource",
        "lat": 66.64386160241489,
        "lon": 36.909538801756256,
        "alt_km": 649.2909557611401,
        "timestamp": "2025-12-06T11:28:10.687260+00:00",
        "meta_object_name": "MICROCARB",
        "meta_object_id": "2025-156A",
        "meta_epoch": "2025-12-05T18:50:51.063072",
        "meta_mean_motion": 14.72039528,
        "meta_eccentricity": 0.00166672,
        "meta_inclination": 98.0031,
        "meta_ra_of_asc_node": 55.2421,
        "meta_arg_of_pericenter": 166.3495,
        "meta_mean_anomaly": 193.8167,
        "meta_ephemeris_type": 0,
        "meta_classification_type": "U",
        "meta_norad_cat_id": 64899,
        "meta_element_set_no": 999,
        "meta_rev_at_epoch": 1951,
        "meta_bstar": 0.00023859326,
        "meta_mean_motion_dot": 1.452e-05,
        "meta_mean_motion_ddot": 0,
        "tle_line1": "1 64899U 25156A   25339.78531323  .00001452  00000+0  23859-3 0  9990",
        "tle_line2": "2 64899  98.0031  55.2421 0016667 166.3495 193.8167 14.72039528 19510"
      },
      "geometry": {
        "type": "Point",
        "coordinates": [
          36.909538801756256,
          66.64386160241489
        ]
      }
    },
    {
      "type": "Feature",
      "properties": {
        "norad_id": 64900,
        "name": "CO3D 3",
        "group": "resource",
        "lat": 72.23244427904584,
        "lon": -99.01499806759834,
        "alt_km": 497.3175850599082,
        "timestamp": "2025-12-06T11:28:10.687271+00:00",
        "meta_object_name": "CO3D 3",
        "meta_object_id": "2025-156B",
        "meta_epoch": "2025-12-05T22:21:59.525280",
        "meta_mean_motion": 15.20205959,
        "meta_eccentricity": 0.00013743,
        "meta_inclination": 97.4349,
        "meta_ra_of_asc_node": 56.3973,
        "meta_arg_of_pericenter": 116.2508,
        "meta_mean_anomaly": 243.8869,
        "meta_ephemeris_type": 0,
        "meta_classification_type": "U",
        "meta_norad_cat_id": 64900,
        "meta_element_set_no": 999,
        "meta_rev_at_epoch": 2017,
        "meta_bstar": 0.00045549663,
        "meta_mean_motion_dot": 9.807e-05,
        "meta_mean_motion_ddot": 0,
        "tle_line1": "1 64900U 25156B   25339.93193895  .00009807  00000+0  45550-3 0  9992",
        "tle_line2": "2 64900  97.4349  56.3973 0001374 116.2508 243.8869 15.20205959 20176"
      },
      "geometry": {
        "type": "Point",
        "coordinates": [
          -99.01499806759834,
          72.23244427904584
        ]
      }
    },
    {
      "type": "Feature",
      "properties": {
        "norad_id": 64901,
        "name": "CO3D 4",
        "group": "resource",
        "lat": 73.01366426001982,
        "lon": -97.75531433504082,
        "alt_km": 498.641905243624,
        "timestamp": "2025-12-06T11:28:10.687281+00:00",
        "meta_object_name": "CO3D 4",
        "meta_object_id": "2025-156C",
        "meta_epoch": "2025-12-05T22:22:12.317664",
        "meta_mean_motion": 15.20193438,
        "meta_eccentricity": 0.00010023,
        "meta_inclination": 97.435,
        "meta_ra_of_asc_node": 56.3974,
        "meta_arg_of_pericenter": 232.7351,
        "meta_mean_anomaly": 127.3793,
        "meta_ephemeris_type": 0,
        "meta_classification_type": "U",
        "meta_norad_cat_id": 64901,
        "meta_element_set_no": 999,
        "meta_rev_at_epoch": 2017,
        "meta_bstar": 0.00042652368,
        "meta_mean_motion_dot": 9.175e-05,
        "meta_mean_motion_ddot": 0,
        "tle_line1": "1 64901U 25156C   25339.93208701  .00009175  00000+0  42652-3 0  9994",
        "tle_line2": "2 64901  97.4350  56.3974 0001002 232.7351 127.3793 15.20193438 20178"
      },
      "geometry": {
        "type": "Point",
        "coordinates": [
          -97.75531433504082,
          73.01366426001982
        ]
      }
    }
  ]
}